IRIDIUM 166             
1 43570U 18061B   24058.02623254 -.00000031  00000+0 -18129-4 0  9998
2 43570  86.3940  48.2546 0002129  98.5641 261.5796 14.34217356292833
IRIDIUM 158             
1 43571U 18061C   24057.92475065 -.00000009  00000+0 -10242-4 0  9995
2 43571  86.3939  48.3062 0002320  91.2617 268.8845 14.34217718292783
IRIDIUM 165             
1 43572U 18061D   24058.01989042  .00000014  00000+0 -19732-5 0  9991
2 43572  86.3941  48.2968 0002373  91.8814 268.2654 14.34217694292824
IRIDIUM 155             
1 43573U 18061E   24058.05160300 -.00000025  00000+0 -15853-4 0  9996
2 43573  86.3938  48.1941 0001866  91.3848 268.7562 14.34217063292800
IRIDIUM 154             
1 43574U 18061F   24058.45118615 -.00000004  00000+0 -83689-5 0  9993
2 43574  86.3942  48.1192 0002179  82.6031 277.5412 14.34217438292908
IRIDIUM 163             
1 43575U 18061G   24058.50192637  .00000058  00000+0  13471-4 0  9994
2 43575  86.3943  48.0394 0002172  85.8349 274.3095 14.34217914292881
IRIDIUM 156             
1 43576U 18061H   24057.91840703  .00000133  00000+0  40353-4 0  9996
2 43576  86.3942  48.2897 0002296  93.5362 266.6096 14.34218545292795
IRIDIUM 164             
1 43577U 18061J   24058.03891869  .00000004  00000+0 -55816-5 0  9999
2 43577  86.3944  48.2665 0002448  88.5697 271.5779 14.34217398292850
